start=new Date('2022-10-06T00:00:00.000Z').valueOf();
sats=[{"TIME_SYSTEM":"UTC","MEAN_MOTION_DOT":"-0.00001092","OBJECT_TYPE":"PAYLOAD","TLE_LINE2":"2 52350  53.2179  54.5116 0002135  29.3070 330.8041 15.08835558 26946","FILE":"3593077","SITE":"AFETR","MEAN_MOTION":"15.08835558","INCLINATION":"53.2179","MEAN_ELEMENT_THEORY":"SGP4","MEAN_MOTION_DDOT":"0.0000000000000","SEMIMAJOR_AXIS":"6917.894","ECCENTRICITY":"0.00021350","EPOCH":"2022-10-05T19:39:00.694656","MEAN_ANOMALY":"330.8041","CLASSIFICATION_TYPE":"U","ELEMENT_SET_NO":"999","PERIOD":"95.438","OBJECT_ID":"2022-045V","DECAY_DATE":null,"RCS_SIZE":"LARGE","COUNTRY_CODE":"US","OBJECT_NAME":"STARLINK-3754","PERIAPSIS":"538.282","EPHEMERIS_TYPE":"0","ARG_OF_PERICENTER":"29.3070","RA_OF_ASC_NODE":"54.5116","TLE_LINE1":"1 52350U 22045V   22278.81875804 -.00001092  00000-0 -50521-4 0  9991","GP_ID":"214276759","BSTAR":"-0.00005052100000","REV_AT_EPOCH":"2694","LAUNCH_DATE":"2022-04-29","REF_FRAME":"TEME","APOAPSIS":"541.236","CENTER_NAME":"EARTH","NORAD_CAT_ID":"52350"},{"MEAN_MOTION_DDOT":"0.0000000000000","INCLINATION":"53.2218","MEAN_MOTION":"15.30582646","MEAN_ELEMENT_THEORY":"SGP4","SITE":"AFETR","TIME_SYSTEM":"UTC","OBJECT_TYPE":"PAYLOAD","MEAN_MOTION_DOT":"0.00333109","TLE_LINE2":"2 52351  53.2218  53.1480 0001665  30.8451 329.2648 15.30582646 26966","FILE":"3593077","OBJECT_ID":"2022-045W","ELEMENT_SET_NO":"999","PERIOD":"94.082","ECCENTRICITY":"0.00016650","EPOCH":"2022-10-05T20:07:50.260224","MEAN_ANOMALY":"329.2648","CLASSIFICATION_TYPE":"U","SEMIMAJOR_AXIS":"6852.210","EPHEMERIS_TYPE":"0","ARG_OF_PERICENTER":"30.8451","RA_OF_ASC_NODE":"53.1480","OBJECT_NAME":"STARLINK-3816","PERIAPSIS":"472.934","DECAY_DATE":null,"RCS_SIZE":"LARGE","COUNTRY_CODE":"US","CENTER_NAME":"EARTH","NORAD_CAT_ID":"52351","APOAPSIS":"475.216","REV_AT_EPOCH":"2696","BSTAR":"0.01063800000000","REF_FRAME":"TEME","LAUNCH_DATE":"2022-04-29","TLE_LINE1":"1 52351U 22045W   22278.83877616  .00333109  00000-0  10638-1 0  9994","GP_ID":"214277005"},{"SEMIMAJOR_AXIS":"6917.884","EPOCH":"2022-10-05T16:12:20.653056","ECCENTRICITY":"0.00019820","CLASSIFICATION_TYPE":"U","MEAN_ANOMALY":"319.0190","ELEMENT_SET_NO":"999","PERIOD":"95.438","OBJECT_ID":"2022-045X","OBJECT_TYPE":"PAYLOAD","MEAN_MOTION_DOT":"-0.00002146","TIME_SYSTEM":"UTC","TLE_LINE2":"2 52352  53.2178  55.1546 0001982  41.0951 319.0190 15.08838929 26926","FILE":"3593077","SITE":"AFETR","INCLINATION":"53.2178","MEAN_MOTION":"15.08838929","MEAN_ELEMENT_THEORY":"SGP4","MEAN_MOTION_DDOT":"0.0000000000000","TLE_LINE1":"1 52352U 22045X   22278.67523904 -.00002146  00000-0 -11676-3 0  9996","GP_ID":"214276258","LAUNCH_DATE":"2022-04-29","REF_FRAME":"TEME","REV_AT_EPOCH":"2692","BSTAR":"-0.00011676000000","APOAPSIS":"541.120","CENTER_NAME":"EARTH","NORAD_CAT_ID":"52352","RCS_SIZE":"LARGE","DECAY_DATE":null,"COUNTRY_CODE":"US","OBJECT_NAME":"STARLINK-3838","PERIAPSIS":"538.378","RA_OF_ASC_NODE":"55.1546","ARG_OF_PERICENTER":"41.0951","EPHEMERIS_TYPE":"0"},{"OBJECT_ID":"2022-045Y","PERIOD":"95.437","ELEMENT_SET_NO":"999","MEAN_ANOMALY":"322.4122","CLASSIFICATION_TYPE":"U","ECCENTRICITY":"0.00021120","EPOCH":"2022-10-05T16:22:56.643456","SEMIMAJOR_AXIS":"6917.876","MEAN_MOTION_DDOT":"0.0000000000000","MEAN_ELEMENT_THEORY":"SGP4","MEAN_MOTION":"15.08841355","INCLINATION":"53.2185","SITE":"AFETR","TLE_LINE2":"2 52353  53.2185  55.1193 0002112  37.7018 322.4122 15.08841355 26925","FILE":"3593077","TIME_SYSTEM":"UTC","OBJECT_TYPE":"PAYLOAD","MEAN_MOTION_DOT":"-0.00002146","NORAD_CAT_ID":"52353","CENTER_NAME":"EARTH","APOAPSIS":"541.202","BSTAR":"-0.00011677000000","REV_AT_EPOCH":"2692","LAUNCH_DATE":"2022-04-29","REF_FRAME":"TEME","GP_ID":"214276508","TLE_LINE1":"1 52353U 22045Y   22278.68260004 -.00002146  00000-0 -11677-3 0  9998","EPHEMERIS_TYPE":"0","ARG_OF_PERICENTER":"37.7018","RA_OF_ASC_NODE":"55.1193","PERIAPSIS":"538.280","OBJECT_NAME":"STARLINK-3807","COUNTRY_CODE":"US","DECAY_DATE":null,"RCS_SIZE":"LARGE"},{"ARG_OF_PERICENTER":"37.7136","EPHEMERIS_TYPE":"0","RA_OF_ASC_NODE":"56.3799","COUNTRY_CODE":"US","DECAY_DATE":null,"RCS_SIZE":"LARGE","PERIAPSIS":"538.223","OBJECT_NAME":"STARLINK-3876","APOAPSIS":"541.270","NORAD_CAT_ID":"52354","CENTER_NAME":"EARTH","GP_ID":"214243309","TLE_LINE1":"1 52354U 22045Z   22278.39923890 -.00001420  00000-0 -71089-4 0  9994","REV_AT_EPOCH":"2688","BSTAR":"-0.00007108900000","REF_FRAME":"TEME","LAUNCH_DATE":"2022-04-29","MEAN_ELEMENT_THEORY":"SGP4","MEAN_MOTION":"15.08839567","INCLINATION":"53.2194","MEAN_MOTION_DDOT":"0.0000000000000","FILE":"3592692","TLE_LINE2":"2 52354  53.2194  56.3799 0002202  37.7136 322.4010 15.08839567 26885","TIME_SYSTEM":"UTC","OBJECT_TYPE":"PAYLOAD","MEAN_MOTION_DOT":"-0.00001420","SITE":"AFETR","PERIOD":"95.438","ELEMENT_SET_NO":"999","OBJECT_ID":"2022-045Z","SEMIMAJOR_AXIS":"6917.882","MEAN_ANOMALY":"322.4010","CLASSIFICATION_TYPE":"U","ECCENTRICITY":"0.00022020","EPOCH":"2022-10-05T09:34:54.240960"},{"REV_AT_EPOCH":"2692","BSTAR":"-0.00013395000000","LAUNCH_DATE":"2022-04-29","REF_FRAME":"TEME","GP_ID":"214277505","TLE_LINE1":"1 52355U 22045AA  22278.67891513 -.00002420  00000-0 -13395-3 0  9998","CENTER_NAME":"EARTH","NORAD_CAT_ID":"52355","APOAPSIS":"541.067","OBJECT_NAME":"STARLINK-3877","PERIAPSIS":"538.413","RCS_SIZE":"LARGE","DECAY_DATE":null,"COUNTRY_CODE":"US","EPHEMERIS_TYPE":"0","ARG_OF_PERICENTER":"47.9855","RA_OF_ASC_NODE":"55.1325","ECCENTRICITY":"0.00019180","EPOCH":"2022-10-05T16:17:38.267232","MEAN_ANOMALY":"312.1300","CLASSIFICATION_TYPE":"U","SEMIMAJOR_AXIS":"6917.875","OBJECT_ID":"2022-045AA","ELEMENT_SET_NO":"999","PERIOD":"95.437","SITE":"AFETR","TIME_SYSTEM":"UTC","MEAN_MOTION_DOT":"-0.00002420","OBJECT_TYPE":"PAYLOAD","FILE":"3593077","TLE_LINE2":"2 52355  53.2206  55.1325 0001918  47.9855 312.1300 15.08841852 26929","MEAN_MOTION_DDOT":"0.0000000000000","MEAN_MOTION":"15.08841852","INCLINATION":"53.2206","MEAN_ELEMENT_THEORY":"SGP4"},{"APOAPSIS":"541.053","CENTER_NAME":"EARTH","NORAD_CAT_ID":"52356","TLE_LINE1":"1 52356U 22045AB  22278.66515558  .00000051  00000-0  21304-4 0  9996","GP_ID":"214275758","REF_FRAME":"TEME","LAUNCH_DATE":"2022-04-29","REV_AT_EPOCH":"2692","BSTAR":"0.00002130400000","RA_OF_ASC_NODE":"55.1790","EPHEMERIS_TYPE":"0","ARG_OF_PERICENTER":"50.7364","RCS_SIZE":"LARGE","DECAY_DATE":null,"COUNTRY_CODE":"US","OBJECT_NAME":"STARLINK-3801","PERIAPSIS":"538.438","PERIOD":"95.438","ELEMENT_SET_NO":"999","OBJECT_ID":"2022-045AB","SEMIMAJOR_AXIS":"6917.881","EPOCH":"2022-10-05T15:57:49.442112","ECCENTRICITY":"0.00018900","CLASSIFICATION_TYPE":"U","MEAN_ANOMALY":"309.3795","INCLINATION":"53.2175","MEAN_MOTION":"15.08839854","MEAN_ELEMENT_THEORY":"SGP4","MEAN_MOTION_DDOT":"0.0000000000000","MEAN_MOTION_DOT":"0.00000051","OBJECT_TYPE":"PAYLOAD","TIME_SYSTEM":"UTC","FILE":"3593077","TLE_LINE2":"2 52356  53.2175  55.1790 0001890  50.7364 309.3795 15.08839854 26922","SITE":"AFETR"},{"TLE_LINE1":"1 52357U 22045AC  22278.67155696 -.00001340  00000-0 -66123-4 0  9993","GP_ID":"214276008","REF_FRAME":"TEME","LAUNCH_DATE":"2022-04-29","REV_AT_EPOCH":"2692","BSTAR":"-0.00006612300000","APOAPSIS":"541.092","CENTER_NAME":"EARTH","NORAD_CAT_ID":"52357","RCS_SIZE":"LARGE","DECAY_DATE":null,"COUNTRY_CODE":"US","OBJECT_NAME":"STARLINK-3821","PERIAPSIS":"538.423","RA_OF_ASC_NODE":"55.1664","ARG_OF_PERICENTER":"38.4567","EPHEMERIS_TYPE":"0","SEMIMAJOR_AXIS":"6917.893","EPOCH":"2022-10-05T16:07:02.521344","ECCENTRICITY":"0.00019290","CLASSIFICATION_TYPE":"U","MEAN_ANOMALY":"321.6562","PERIOD":"95.438","ELEMENT_SET_NO":"999","OBJECT_ID":"2022-045AC","MEAN_MOTION_DOT":"-0.00001340","OBJECT_TYPE":"PAYLOAD","TIME_SYSTEM":"UTC","TLE_LINE2":"2 52357  53.2200  55.1664 0001929  38.4567 321.6562 15.08835892 26920","FILE":"3593077","SITE":"AFETR","MEAN_MOTION":"15.08835892","INCLINATION":"53.2200","MEAN_ELEMENT_THEORY":"SGP4","MEAN_MOTION_DDOT":"0.0000000000000"},{"SITE":"AFETR","TIME_SYSTEM":"UTC","MEAN_MOTION_DOT":"-0.00001821","OBJECT_TYPE":"PAYLOAD","FILE":"3593077","TLE_LINE2":"2 52358  53.2173  55.2336 0002225  45.6574 314.4600 15.08836675 26928","MEAN_MOTION_DDOT":"0.0000000000000","INCLINATION":"53.2173","MEAN_MOTION":"15.08836675","MEAN_ELEMENT_THEORY":"SGP4","ECCENTRICITY":"0.00022250","EPOCH":"2022-10-05T15:40:33.273696","MEAN_ANOMALY":"314.4600","CLASSIFICATION_TYPE":"U","SEMIMAJOR_AXIS":"6917.891","OBJECT_ID":"2022-045AD","PERIOD":"95.438","ELEMENT_SET_NO":"999","OBJECT_NAME":"STARLINK-3837","PERIAPSIS":"538.216","DECAY_DATE":null,"RCS_SIZE":"LARGE","COUNTRY_CODE":"US","EPHEMERIS_TYPE":"0","ARG_OF_PERICENTER":"45.6574","RA_OF_ASC_NODE":"55.2336","REV_AT_EPOCH":"2692","BSTAR":"-0.00009634300000","REF_FRAME":"TEME","LAUNCH_DATE":"2022-04-29","GP_ID":"214276760","TLE_LINE1":"1 52358U 22045AD  22278.65316289 -.00001821  00000-0 -96343-4 0  9990","CENTER_NAME":"EARTH","NORAD_CAT_ID":"52358","APOAPSIS":"541.295"},{"SEMIMAJOR_AXIS":"6917.892","EPOCH":"2022-10-05T16:01:44.553792","ECCENTRICITY":"0.00019180","CLASSIFICATION_TYPE":"U","MEAN_ANOMALY":"323.5374","ELEMENT_SET_NO":"999","PERIOD":"95.438","OBJECT_ID":"2022-045AE","MEAN_MOTION_DOT":"-0.00000215","OBJECT_TYPE":"PAYLOAD","TIME_SYSTEM":"UTC","TLE_LINE2":"2 52359  53.2207  55.1813 0001918  36.5749 323.5374 15.08836175 26921","FILE":"3593077","SITE":"AFETR","MEAN_MOTION":"15.08836175","INCLINATION":"53.2207","MEAN_ELEMENT_THEORY":"SGP4","MEAN_MOTION_DDOT":"0.0000000000000","GP_ID":"214277006","TLE_LINE1":"1 52359U 22045AE  22278.66787678 -.00000215  00000-0  45865-5 0  9995","REF_FRAME":"TEME","LAUNCH_DATE":"2022-04-29","REV_AT_EPOCH":"2692","BSTAR":"0.00000458650000","APOAPSIS":"541.084","CENTER_NAME":"EARTH","NORAD_CAT_ID":"52359","RCS_SIZE":"LARGE","DECAY_DATE":null,"COUNTRY_CODE":"US","OBJECT_NAME":"STARLINK-3853","PERIAPSIS":"538.430","RA_OF_ASC_NODE":"55.1813","EPHEMERIS_TYPE":"0","ARG_OF_PERICENTER":"36.5749"}];
